NORAD_CAT_ID,OBJECT_NAME,OBJECT_TYPE,EPOCH,MEAN_MOTION,ECCENTRICITY,INCLINATION,RA_OF_ASC_NODE,ARG_OF_PERICENTER,MEAN_ANOMALY,BSTAR,MEAN_MOTION_DOT,MEAN_MOTION_DDOT,TLE_LINE0,TLE_LINE1,TLE_LINE2,SEMIMAJOR_AXIS,PERIOD,APOGEE,PERIGEE,DECAYED
55283.0,STARLINK-5317,PAYLOAD,2023-02-05 00:00:02,15.74163625,0.0003633,70.0001,22.652,263.1236,74.6395,-0.0064087,-0.00836296,0.0,0 STARLINK-5317,1 55283U 23010Q   23036.00002315 -.00836296  00000-0 -64087-2 0  9997,2 55283  70.0001  22.6520 0003633 263.1236  74.6395 15.74163625  3094,6725.149,91.477,349.457,344.571,0.0
55283.0,STARLINK-5317,PAYLOAD,2023-02-05 14:00:01,15.73123145,0.0003737,69.9969,20.9945,271.7541,129.6684,-0.0068685,-0.0085506,0.0,0 STARLINK-5317,1 55283U 23010Q   23036.58335648 -.00855060  00000-0 -68685-2 0  9996,2 55283  69.9969  20.9945 0003737 271.7541 129.6684 15.73123145  1301,6728.114,91.538,352.494,347.465,0.0
55283.0,STARLINK-5317,PAYLOAD,2023-02-05 22:00:00,15.72539063,0.0003433,69.9976,20.0534,267.8389,220.305,-0.0070287,-0.00853409,0.0,0 STARLINK-5317,1 55283U 23010Q   23036.91667824 -.00853409  00000-0 -70287-2 0  9993,2 55283  69.9976  20.0534 0003433 267.8389 220.3050 15.72539063  1308,6729.78,91.572,353.956,349.335,0.0
55283.0,STARLINK-5317,PAYLOAD,2023-02-06 06:00:00,15.71892375,0.0003577,69.9978,19.1131,273.599,300.6502,-0.0067049,-0.00797378,0.0,0 STARLINK-5317,1 55283U 23010Q   23037.25001157 -.00797378  00000-0 -67049-2 0  9996,2 55283  69.9978  19.1131 0003577 273.5990 300.6502 15.71892375  3294,6731.626,91.609,355.899,351.083,0.0
55283.0,STARLINK-5317,PAYLOAD,2023-02-06 14:00:01,15.71342926,0.0003625,69.9974,18.1735,271.2917,28.3054,-0.0076215,-0.00877082,0.0,0 STARLINK-5317,1 55283U 23010Q   23037.58334491 -.00877082  00000-0 -76215-2 0  9998,2 55283  69.9974  18.1735 0003625 271.2917  28.3054 15.71342926  1305,6733.195,91.641,357.501,352.619,0.0
55283.0,STARLINK-5317,PAYLOAD,2023-02-06 22:00:00,15.70734843,0.0003633,69.9982,17.2348,266.8594,117.3811,-0.007415,-0.00835886,0.0,0 STARLINK-5317,1 55283U 23010Q   23037.91667824 -.00835886  00000-0 -74150-2 0  9996,2 55283  69.9982  17.2348 0003633 266.8594 117.3811 15.70734843  1306,6734.933,91.677,359.244,354.351,0.0
55283.0,STARLINK-5317,PAYLOAD,2023-02-07 00:00:00,15.70557412,0.0003538,69.9985,17.0001,268.7274,226.5711,-0.0068168,-0.00768887,0.0,0 STARLINK-5317,1 55283U 23010Q   23038.00001157 -.00768887  00000-0 -68168-2 0  9996,2 55283  69.9985  17.0001 0003538 268.7274 226.5711 15.70557412  3414,6735.44,91.687,359.688,354.922,0.0
55283.0,STARLINK-5317,PAYLOAD,2023-02-07 06:00:00,15.69949835,0.0003399,69.9988,16.2973,271.8372,196.3664,-0.00039877,-0.0004794,0.0,0 STARLINK-5317,1 55283U 23010Q   23038.25001157 -.00047940  00000-0 -39877-3 0  9999,2 55283  69.9988  16.2973 0003399 271.8372 196.3664 15.69949835  3441,6737.178,91.723,361.332,356.753,0.0
55283.0,STARLINK-5317,PAYLOAD,2023-02-07 14:00:01,15.69972738,0.00032,69.9996,15.3595,267.5039,284.0318,-0.00088338,-0.00105319,0.0,0 STARLINK-5317,1 55283U 23010Q   23038.58334491 -.00105319  00000-0 -88338-3 0  9996,2 55283  69.9996  15.3595 0003200 267.5039 284.0318 15.69972738  1305,6737.112,91.721,361.133,356.821,0.0
55283.0,STARLINK-5317,PAYLOAD,2023-02-07 22:00:00,15.69929359,0.0003339,70.0005,14.4223,258.9356,15.9359,0.00016026,0.00019105,0.0,0 STARLINK-5317,1 55283U 23010Q   23038.91667824  .00019105  00000-0  16026-3 0  9992,2 55283  70.0005  14.4223 0003339 258.9356  15.9359 15.69929359  1303,6737.236,91.724,361.351,356.852,0.0
55283.0,STARLINK-5317,PAYLOAD,2023-02-08 00:00:00,15.69968317,0.0003344,70.0007,14.188,260.9646,124.7323,-0.00048682,-0.0005845,0.0,0 STARLINK-5317,1 55283U 23010Q   23039.00001157 -.00058450  00000-0 -48682-3 0  9995,2 55283  70.0007  14.1880 0003344 260.9646 124.7323 15.69968317  3569,6737.125,91.722,361.243,356.737,0.0
55283.0,STARLINK-5317,PAYLOAD,2023-02-08 08:00:01,15.69941314,0.000328,70.0008,13.2506,272.2202,196.8763,-0.00060051,-0.00071855,0.0,0 STARLINK-5317,1 55283U 23010Q   23039.33334491 -.00071855  00000-0 -60051-3 0  9999,2 55283  70.0008  13.2506 0003280 272.2202 196.8763 15.69941314  3610,6737.202,91.723,361.277,356.857,0.0
55283.0,STARLINK-5317,PAYLOAD,2023-02-08 14:00:01,15.69936648,0.0003247,70.0004,12.5478,270.2412,171.2976,-0.00016354,-0.0001984,0.0,0 STARLINK-5317,1 55283U 23010Q   23039.58334491 -.00019840  00000-0 -16354-3 0  9999,2 55283  70.0004  12.5478 0003247 270.2412 171.2976 15.69936648  1301,6737.215,91.723,361.268,356.893,0.0
55283.0,STARLINK-5317,PAYLOAD,2023-02-08 22:00:00,15.69956302,0.0003255,70.0008,11.6109,267.1943,257.6781,-0.00021864,-0.00026454,0.0,0 STARLINK-5317,1 55283U 23010Q   23039.91667824 -.00026454  00000-0 -21864-3 0  9996,2 55283  70.0008  11.6109 0003255 267.1943 257.6781 15.69956302  3718,6737.159,91.722,361.217,356.831,0.0
55283.0,STARLINK-5317,PAYLOAD,2023-02-09 12:00:00,15.69954339,0.0003355,70.0001,9.9706,273.6233,307.1076,-0.00068984,-0.00082454,0.0,0 STARLINK-5317,1 55283U 23010Q   23040.50001157 -.00082454  00000-0 -68984-3 0  9990,2 55283  70.0001   9.9706 0003355 273.6233 307.1076 15.69954339  1308,6737.165,91.722,361.29,356.769,0.0
55283.0,STARLINK-5317,PAYLOAD,2023-02-09 22:00:00,15.69944956,0.0003463,70.0006,8.7991,265.2186,149.6619,-0.00012778,-0.00015562,0.0,0 STARLINK-5317,1 55283U 23010Q   23040.91667824 -.00015562  00000-0 -12778-3 0  9990,2 55283  70.0006   8.7991 0003463 265.2186 149.6619 15.69944956  1306,6737.191,91.723,361.39,356.723,0.0
55283.0,STARLINK-5317,PAYLOAD,2023-02-09 23:17:47,15.69929057,0.0003199,70.0005,8.6476,272.2999,87.783,4.3899e-05,5.07e-05,0.0,0 STARLINK-5317,1 55283U 23010Q   23040.97069274  .00005070  00000-0  43899-4 0  9991,2 55283  70.0005   8.6476 0003199 272.2999  87.7830 15.69929057  3874,6737.237,91.724,361.257,356.947,0.0
55283.0,STARLINK-5317,PAYLOAD,2023-02-10 03:53:02,15.6994346,0.0003062,70.0005,8.1102,261.8568,98.228,0.00012039,0.00014299,0.0,0 STARLINK-5317,1 55283U 23010Q   23041.16183963  .00014299  00000-0  12039-3 0  9999,2 55283  70.0005   8.1102 0003062 261.8568  98.2280 15.69943460  4219,6737.196,91.723,361.124,356.998,0.0
55283.0,STARLINK-5317,PAYLOAD,2023-02-10 14:35:18,15.69957094,0.0003255,70.0007,6.856,270.2494,89.8329,0.00021809,0.00026128,0.0,0 STARLINK-5317,1 55283U 23010Q   23041.60785289  .00026128  00000-0  21809-3 0  9996,2 55283  70.0007   6.8560 0003255 270.2494  89.8329 15.69957094  3970,6737.157,91.722,361.215,356.829,0.0
55283.0,STARLINK-5317,PAYLOAD,2023-02-11 04:21:05,15.6993631,0.0004021,70.0005,5.2437,270.6427,89.4308,0.00028439,0.00034143,0.0,0 STARLINK-5317,1 55283U 23010Q   23042.18131231  .00034143  00000-0  28439-3 0  9994,2 55283  70.0005   5.2437 0004021 270.6427  89.4308 15.69936310  4068,6737.216,91.723,361.79,356.372,0.0
55283.0,STARLINK-5317,PAYLOAD,2023-02-11 08:56:20,15.69972497,0.0003658,70.0004,4.7055,261.3561,98.722,0.00078522,0.0009548,0.0,0 STARLINK-5317,1 55283U 23010Q   23042.37246164  .00095480  00000-0  78522-3 0  9996,2 55283  70.0004   4.7055 0003658 261.3561  98.7220 15.69972497  4093,6737.113,91.721,361.442,356.513,0.0
55283.0,STARLINK-5317,PAYLOAD,2023-02-12 03:17:13,15.7025505,0.0005429,70.0014,2.556,244.1983,115.8653,0.0014417,0.00179408,0.0,0 STARLINK-5317,1 55283U 23010Q   23043.13695912  .00179408  00000-0  14417-2 0  9995,2 55283  70.0014   2.5560 0005429 244.1983 115.8653 15.70255050  4212,6736.304,91.705,361.827,354.512,0.0
55283.0,STARLINK-5317,PAYLOAD,2023-02-12 04:48:58,15.69965459,0.0003619,70.0014,2.377,247.2988,112.7825,0.0011415,0.00139593,0.0,0 STARLINK-5317,1 55283U 23010Q   23043.20067452  .00139593  00000-0  11415-2 0  9991,2 55283  70.0014   2.3770 0003619 247.2988 112.7825 15.69965459  4228,6737.133,91.722,361.436,356.56,0.0
55283.0,STARLINK-5317,PAYLOAD,2023-02-13 05:17:00,15.70134917,0.0003453,70.0011,359.5113,251.7686,108.3134,-0.00091928,-0.00110271,0.0,0 STARLINK-5317,1 55283U 23010Q   23044.22014512 -.00110271  00000-0 -91928-3 0  9995,2 55283  70.0011 359.5113 0003453 251.7686 108.3134 15.70134917  4384,6736.648,91.712,360.839,356.187,0.0
55283.0,STARLINK-5317,PAYLOAD,2023-02-13 08:20:30,15.7005617,0.0003075,70.0009,359.1526,263.5633,96.5213,-0.00065853,-0.0007908,0.0,0 STARLINK-5317,1 55283U 23010Q   23044.34758026 -.00079080  00000-0 -65853-3 0  9993,2 55283  70.0009 359.1526 0003075 263.5633  96.5213 15.70056170  4401,6736.873,91.716,360.81,356.667,0.0
55283.0,STARLINK-5317,PAYLOAD,2023-02-13 22:06:26,15.69796157,0.0003262,70.0003,357.5412,253.7094,106.3743,0.001043,0.00126433,0.0,0 STARLINK-5317,1 55283U 23010Q   23044.92114169  .00126433  00000-0  10430-2 0  9994,2 55283  70.0003 357.5412 0003262 253.7094 106.3743 15.69796157  4492,6737.617,91.732,361.68,357.284,0.0
55283.0,STARLINK-5317,PAYLOAD,2023-02-14 05:45:11,15.69960867,0.0003559,69.9999,356.6452,252.1067,107.9741,0.00069584,0.00084434,0.0,0 STARLINK-5317,1 55283U 23010Q   23045.23971819  .00084434  00000-0  69584-3 0  9991,2 55283  69.9999 356.6452 0003559 252.1067 107.9741 15.69960867  4541,6737.146,91.722,361.409,356.613,0.0
55283.0,STARLINK-5317,PAYLOAD,2023-02-14 19:30:57,15.69968001,0.0003959,69.9995,355.0324,279.094,80.9808,0.00057519,0.0006966,0.0,0 STARLINK-5317,1 55283U 23010Q   23045.81316818  .00069660  00000-0  57519-3 0  9996,2 55283  69.9995 355.0324 0003959 279.0940  80.9808 15.69968001  4632,6737.126,91.722,361.658,356.323,0.0
55283.0,STARLINK-5317,PAYLOAD,2023-02-15 06:12:59,15.71096797,0.0010188,69.9997,353.7772,282.9171,77.0887,0.0080777,0.01147187,0.0,0 STARLINK-5317,1 55283U 23010Q   23046.25902009  .01147187  00000-0  80777-2 0  9991,2 55283  69.9997 353.7772 0010188 282.9171  77.0887 15.71096797  4706,6733.898,91.656,362.624,348.903,0.0
55283.0,STARLINK-5317,PAYLOAD,2023-02-15 07:44:37,15.71512345,0.0008943,69.9998,353.5978,287.5965,72.4255,0.0077527,0.0111636,0.0,0 STARLINK-5317,1 55283U 23010Q   23046.32265703  .01116360  00000-0  77527-2 0  9990,2 55283  69.9998 353.5978 0008943 287.5965  72.4255 15.71512345  4712,6732.711,91.631,360.597,348.555,0.0
